{
  "norad_id": 65095,
  "name": "STARLINK-34768",
  "history": [
    {
      "epoch": "2026-03-28T20:36:51.971904Z",
      "apogee_km": 475.6897664817034,
      "perigee_km": 474.7696334685652,
      "latitude_deg": -4.4864914831216365e-05,
      "longitude_deg": 162.20707623109365,
      "height_km": 476.14723264291024,
      "semi_major_axis_km": 6853.366699975134,
      "eccentricity": 6.713e-05,
      "inclination_deg": 53.158,
      "raan_deg": 297.697,
      "arg_perigee_deg": 92.3509,
      "mean_anomaly_deg": 267.7568,
      "mean_motion_rev_day": 15.301951
    }
  ]
}