{"fetched_at":"2026-03-30T06:02:59Z","count":15439,"tles":[{"name":"STARLINK-34768","line1":"1 65095U 25167T   26087.85893486  .00024804  00000+0  84692-3 0  9999","line2":"2 65095  53.1580 297.6970 0000671  92.3509 267.7568 15.30195100 36411","category":"Starlink"}]}